NORAD_CAT_ID,OBJECT_NAME,OBJECT_TYPE,EPOCH,MEAN_MOTION,ECCENTRICITY,INCLINATION,RA_OF_ASC_NODE,ARG_OF_PERICENTER,MEAN_ANOMALY,BSTAR,MEAN_MOTION_DOT,MEAN_MOTION_DDOT,TLE_LINE0,TLE_LINE1,TLE_LINE2,SEMIMAJOR_AXIS,PERIOD,APOGEE,PERIGEE,DECAYED
54796.0,STARLINK-5415,PAYLOAD,2023-07-24 11:18:16,15.08838987,0.0001135,53.22,14.9692,114.2323,245.8788,5.8545e-05,6.44e-06,0.0,0 STARLINK-5415,1 54796U 22175AQ  23205.47102080  .00000644  00000-0  58545-4 0  9997,2 54796  53.2200  14.9692 0001135 114.2323 245.8788 15.08838987 35324,6917.883,95.438,540.534,538.963,0.0
54796.0,STARLINK-5415,PAYLOAD,2023-07-24 19:15:11,15.08850511,0.0001023,53.2184,13.4876,79.4544,280.6564,0.00010408,1.369e-05,0.0,0 STARLINK-5415,1 54796U 22175AQ  23205.80221241  .00001369  00000-0  10408-3 0  9995,2 54796  53.2184  13.4876 0001023  79.4544 280.6564 15.08850511 35377,6917.848,95.437,540.421,539.006,0.0
54796.0,STARLINK-5415,PAYLOAD,2023-07-26 12:35:14,15.08833866,8.78e-05,53.219,5.7535,106.2999,253.809,-0.00011939,-2.187e-05,0.0,0 STARLINK-5415,1 54796U 22175AQ  23207.52447160 -.00002187  00000-0 -11939-3 0  9997,2 54796  53.2190   5.7535 0000878 106.2999 253.8090 15.08833866 35639,6917.899,95.438,540.372,539.157,0.0
54796.0,STARLINK-5415,PAYLOAD,2023-07-26 20:32:09,15.08839349,0.0001484,53.2192,4.2716,68.9899,291.1252,-4.305e-05,-9.73e-06,0.0,0 STARLINK-5415,1 54796U 22175AQ  23207.85566863 -.00000973  00000-0 -43050-4 0  9996,2 54796  53.2192   4.2716 0001484  68.9899 291.1252 15.08839349 35685,6917.882,95.438,540.774,538.721,0.0
54796.0,STARLINK-5415,PAYLOAD,2023-07-27 10:50:37,15.08837626,0.0001041,53.2198,1.5922,101.3682,258.7427,4.9925e-05,5.07e-06,0.0,0 STARLINK-5415,1 54796U 22175AQ  23208.45182699  .00000507  00000-0  49925-4 0  9992,2 54796  53.2198   1.5922 0001041 101.3682 258.7427 15.08837626 35770,6917.888,95.438,540.473,539.032,0.0
54796.0,STARLINK-5415,PAYLOAD,2023-07-27 17:12:09,15.08844948,0.0001017,53.2205,0.4045,104.9526,255.1579,0.00013093,1.797e-05,0.0,0 STARLINK-5415,1 54796U 22175AQ  23208.71678079  .00001797  00000-0  13093-3 0  9991,2 54796  53.2205   0.4045 0001017 104.9526 255.1579 15.08844948 33651,6917.865,95.437,540.434,539.027,0.0
54796.0,STARLINK-5415,PAYLOAD,2023-07-27 21:58:18,15.08850548,9.47e-05,53.2192,359.5098,95.3373,264.7727,0.00015471,2.176e-05,0.0,0 STARLINK-5415,1 54796U 22175AQ  23208.91549456  .00002176  00000-0  15471-3 0  9993,2 54796  53.2192 359.5098 0000947  95.3373 264.7727 15.08850548 33683,6917.848,95.437,540.368,539.058,0.0
54796.0,STARLINK-5415,PAYLOAD,2023-07-28 09:06:01,15.08831642,0.00014,53.2164,357.4284,88.5839,271.5313,0.00010605,1.4e-05,0.0,0 STARLINK-5415,1 54796U 22175AQ  23209.37918873  .00001400  00000-0  10605-3 0  9990,2 54796  53.2164 357.4284 0001400  88.5839 271.5313 15.08831642 33751,6917.906,95.438,540.739,538.802,0.0
54796.0,STARLINK-5415,PAYLOAD,2023-07-29 10:32:12,15.0884113,0.0001237,53.2151,352.6692,96.7394,263.3739,-2.1445e-05,-6.29e-06,0.0,0 STARLINK-5415,1 54796U 22175AQ  23210.43903003 -.00000629  00000-0 -21445-4 0  9997,2 54796  53.2151 352.6692 0001237  96.7394 263.3739 15.08841130 33914,6917.877,95.437,540.598,538.886,0.0
54796.0,STARLINK-5415,PAYLOAD,2023-07-29 18:29:07,15.08848278,0.0001079,53.2188,351.1835,96.2103,263.9013,3.7845e-05,3.15e-06,0.0,0 STARLINK-5415,1 54796U 22175AQ  23210.77022326  .00000315  00000-0  37845-4 0  9995,2 54796  53.2188 351.1835 0001079  96.2103 263.9013 15.08848278 33960,6917.855,95.437,540.467,538.974,0.0
54796.0,STARLINK-5415,PAYLOAD,2023-07-30 10:22:59,15.08835635,7.1e-05,53.2183,348.2111,108.3843,251.7226,0.00014275,1.985e-05,0.0,0 STARLINK-5415,1 54796U 22175AQ  23211.43262750  .00001985  00000-0  14275-3 0  9991,2 54796  53.2183 348.2111 0000710 108.3843 251.7226 15.08835635 34062,6917.894,95.438,540.25,539.268,0.0
54796.0,STARLINK-5415,PAYLOAD,2023-07-31 18:10:41,15.08847149,8.52e-05,53.218,342.2633,79.3799,280.7289,0.00016242,2.299e-05,0.0,0 STARLINK-5415,1 54796U 22175AQ  23212.75742079  .00002299  00000-0  16242-3 0  9999,2 54796  53.2180 342.2633 0000852  79.3799 280.7289 15.08847149 34262,6917.859,95.437,540.313,539.134,0.0
54796.0,STARLINK-5415,PAYLOAD,2023-08-01 14:50:42,15.08842194,0.0001116,53.2187,338.3999,62.338,297.7726,8.9153e-05,1.131e-05,0.0,0 STARLINK-5415,1 54796U 22175AQ  23213.61854552  .00001131  00000-0  89153-4 0  9991,2 54796  53.2187 338.3999 0001116  62.3380 297.7726 15.08842194 34395,6917.874,95.437,540.511,538.967,0.0
54796.0,STARLINK-5415,PAYLOAD,2023-08-03 08:10:43,15.08841287,0.0001118,53.218,330.6671,96.1534,263.9585,8.9746e-05,1.141e-05,0.0,0 STARLINK-5415,1 54796U 22175AQ  23215.34078354  .00001141  00000-0  89746-4 0  9990,2 54796  53.2180 330.6671 0001118  96.1534 263.9585 15.08841287 34657,6917.876,95.437,540.515,538.968,0.0
54796.0,STARLINK-5415,PAYLOAD,2023-08-04 11:12:17,15.08830832,0.0001144,53.2187,325.6123,98.967,261.1451,-1.3379e-05,-5.01e-06,0.0,0 STARLINK-5415,1 54796U 22175AQ  23216.46687394 -.00000501  00000-0 -13379-4 0  9994,2 54796  53.2187 325.6123 0001144  98.9670 261.1451 15.08830832 34825,6917.908,95.438,540.565,538.982,0.0
54796.0,STARLINK-5415,PAYLOAD,2023-08-05 11:03:04,15.08844134,0.0001043,53.2182,321.1505,99.5054,260.6056,7.0695e-05,8.38e-06,0.0,0 STARLINK-5415,1 54796U 22175AQ  23217.46046440  .00000838  00000-0  70695-4 0  9991,2 54796  53.2182 321.1505 0001043  99.5054 260.6056 15.08844134 34977,6917.868,95.437,540.454,539.011,0.0
54796.0,STARLINK-5415,PAYLOAD,2023-08-05 17:24:35,15.08861574,0.00011,53.2182,319.9613,98.5948,261.5169,0.00023211,3.41e-05,0.0,0 STARLINK-5415,1 54796U 22175AQ  23217.72540878  .00003410  00000-0  23211-3 0  9994,2 54796  53.2182 319.9613 0001100  98.5948 261.5169 15.08861574 35015,6917.814,95.436,540.44,538.918,0.0
54796.0,STARLINK-5415,PAYLOAD,2023-08-05 23:46:10,15.08832601,0.000159,53.2185,318.7718,76.9522,283.1647,5.8836e-05,6.48e-06,0.0,0 STARLINK-5415,1 54796U 22175AQ  23217.99039374  .00000648  00000-0  58836-4 0  9999,2 54796  53.2185 318.7718 0001590  76.9522 283.1647 15.08832601 35056,6917.903,95.438,540.868,538.668,0.0
54796.0,STARLINK-5415,PAYLOAD,2023-08-06 10:53:53,15.08815013,0.0001331,53.2177,316.6902,77.1222,282.9919,-5.5384e-05,-1.169e-05,0.0,0 STARLINK-5415,1 54796U 22175AQ  23218.45409257 -.00001169  00000-0 -55384-4 0  9998,2 54796  53.2177 316.6902 0001331  77.1222 282.9919 15.08815013 35127,6917.957,95.439,540.743,538.901,0.0
54796.0,STARLINK-5415,PAYLOAD,2023-08-06 14:04:39,15.08817683,0.0001276,53.2163,316.0951,69.0462,291.0666,-0.0001736,-3.048e-05,0.0,0 STARLINK-5415,1 54796U 22175AQ  23218.58656448 -.00003048  00000-0 -17360-3 0  9997,2 54796  53.2163 316.0951 0001276  69.0462 291.0666 15.08817683 35141,6917.949,95.439,540.696,538.931,0.0
54796.0,STARLINK-5415,PAYLOAD,2023-08-06 23:36:58,15.08825396,0.0001333,53.2163,314.3115,65.4494,294.6637,-7.8144e-05,-1.531e-05,0.0,0 STARLINK-5415,1 54796U 22175AQ  23218.98400508 -.00001531  00000-0 -78144-4 0  9998,2 54796  53.2163 314.3115 0001333  65.4494 294.6637 15.08825396 35207,6917.925,95.438,540.712,538.868,0.0
54796.0,STARLINK-5415,PAYLOAD,2023-08-07 07:33:53,15.088398,0.0001113,53.2157,312.825,64.5215,295.5893,-8.0053e-05,-1.562e-05,0.0,0 STARLINK-5415,1 54796U 22175AQ  23219.31520026 -.00001562  00000-0 -80053-4 0  9990,2 54796  53.2157 312.8250 0001113  64.5215 295.5893 15.08839800 35254,6917.881,95.438,540.516,538.976,0.0
54796.0,STARLINK-5415,PAYLOAD,2023-08-08 05:49:17,15.08857363,0.0001252,53.2153,308.6623,59.3703,300.7412,0.00087066,0.00013602,0.0,0 STARLINK-5415,1 54796U 22175AQ  23220.24256338  .00013602  00000-0  87066-3 0  9992,2 54796  53.2153 308.6623 0001252  59.3703 300.7412 15.08857363 35390,6917.827,95.436,540.558,538.826,0.0
54796.0,STARLINK-5415,PAYLOAD,2023-08-09 05:40:04,15.08846422,0.0001027,53.2154,304.202,43.6871,316.4203,0.00010585,1.398e-05,0.0,0 STARLINK-5415,1 54796U 22175AQ  23221.23615748  .00001398  00000-0  10585-3 0  9997,2 54796  53.2154 304.2020 0001027  43.6871 316.4203 15.08846422 35549,6917.861,95.437,540.436,539.015,0.0
54796.0,STARLINK-5415,PAYLOAD,2023-08-10 11:52:23,15.08848475,0.0001172,53.2164,298.5514,73.0167,287.0953,0.00026381,3.914e-05,0.0,0 STARLINK-5415,1 54796U 22175AQ  23222.49471735  .00003914  00000-0  26381-3 0  9999,2 54796  53.2164 298.5514 0001172  73.0167 287.0953 15.08848475 35735,6917.854,95.437,540.53,538.909,0.0
54796.0,STARLINK-5415,PAYLOAD,2023-08-11 10:07:47,15.08839196,0.000122,53.2167,294.3894,77.4169,282.696,0.00012345,1.677e-05,0.0,0 STARLINK-5415,1 54796U 22175AQ  23223.42208072  .00001677  00000-0  12345-3 0  9994,2 54796  53.2167 294.3894 0001220  77.4169 282.6960 15.08839196 35871,6917.883,95.438,540.592,538.904,0.0
54796.0,STARLINK-5415,PAYLOAD,2023-08-11 14:53:56,15.08846271,0.0001172,53.2161,293.4962,76.919,283.1933,0.00019983,2.894e-05,0.0,0 STARLINK-5415,1 54796U 22175AQ  23223.62079672  .00002894  00000-0  19983-3 0  9995,2 54796  53.2161 293.4962 0001172  76.9190 283.1933 15.08846271 35907,6917.861,95.437,540.537,538.915,0.0
54796.0,STARLINK-5415,PAYLOAD,2023-08-12 09:58:34,15.08839931,0.0001229,53.2171,289.9295,84.4629,275.6503,2.9001e-05,1.74e-06,0.0,0 STARLINK-5415,1 54796U 22175AQ  23224.41567999  .00000174  00000-0  29001-4 0  9999,2 54796  53.2171 289.9295 0001229  84.4629 275.6503 15.08839931 36029,6917.881,95.438,540.596,538.895,0.0
54796.0,STARLINK-5415,PAYLOAD,2023-08-13 05:03:12,15.08834954,0.0001276,53.2175,286.361,85.4355,274.6783,-8.2962e-06,-4.2e-06,0.0,0 STARLINK-5415,1 54796U 22175AQ  23225.21056396 -.00000420  00000-0 -82962-5 0  9994,2 54796  53.2175 286.3610 0001276  85.4355 274.6783 15.08834954 36146,6917.896,95.438,540.644,538.878,0.0
54796.0,STARLINK-5415,PAYLOAD,2023-08-14 09:40:09,15.08843368,0.0001222,53.217,281.0071,86.6571,273.456,0.00012452,1.695e-05,0.0,0 STARLINK-5415,1 54796U 22175AQ  23226.40288256  .00001695  00000-0  12452-3 0  9996,2 54796  53.2170 281.0071 0001222  86.6571 273.4560 15.08843368 36327,6917.87,95.437,540.58,538.89,0.0
